NEUTRON-1               
1 46923U 98067RT  22176.41526330  .12845636  12650-4  26350-3 0  9998
2 46923  51.6170 243.5264 0005175 317.3043  42.7583 16.46729377 93330
ISS DEB                 
1 47853U 98067RZ  22179.07334342  .00005809  00000+0  95670-4 0  9996
2 47853  51.6419 277.4108 0002515  42.7473 317.3713 15.53904491 73561
TSURU                   
1 47927U 98067SD  22179.38613099  .00776719  34024-3  80023-3 0  9998
2 47927  51.6234 242.4894 0012400 349.7664  10.3096 16.09908863 73550
MAYA-2                  
1 47929U 98067SF  22179.46899254  .00686417  25305-3  80584-3 0  9997
2 47929  51.6231 242.2971 0012293 349.9228  10.1537 16.07892633 73521
GUARANISAT-1            
1 47931U 98067SH  22179.36867181  .00801405  36594-3  80984-3 0  9995
2 47931  51.6214 242.3773 0012321 350.0531  10.0238 16.10207967 73552
MMSATS-1                
1 47976U 98067SJ  22175.88838600  .00022547  00000+0  28543-3 0  9995
2 47976  51.6425 287.5930 0001026  19.9868 340.1165 15.59400158 71424
TIANHE                  
1 48274U 21035A   22179.42045472  .00011960  00000+0  14434-3 0  9990
2 48274  41.4699 150.6043 0003395 343.0350 156.0767 15.60587936 66528
ISS DEB                 
1 48833U 98067SK  22178.64616787  .00038021  00000+0  37515-3 0  9998
2 48833  51.6368 270.7423 0002716 354.2532   5.8432 15.65533620 60758
RAMSAT                  
1 48850U 98067SL  22179.47472125  .00050268  00000+0  37712-3 0  9991
2 48850  51.6360 261.2763 0002837   4.5873 355.5150 15.72091322 59068
BD-28                   
1 48867U 98067SN  22179.49518389  .00075920  00000+0  46547-3 0  9992
2 48867  51.6283 258.3443 0004221 337.6946  22.3869 15.76595614 57850
ISS (NAUKA)             
1 49044U 21066A   22178.51914833 -.00000148  00000+0  54263-5 0  9998
2 49044  51.6433 285.4203 0004485 297.2032 167.6633 15.49715456 52876
TIANZHOU-3              
1 49222U 21085A   22178.13375831  .00011688  00000+0  14133-3 0  9994
2 49222  41.4703 158.4333 0003511 335.8918 125.0416 15.60554981 66324
FREGAT DEB              
1 49271U 11037PF  22179.35505530 -.00004641  00000+0 -30651-1 0  9994
2 49271  51.6492 203.8049 0741693  63.0638 304.3996 11.87445274 48485
BINAR-1                 
1 49272U 98067SR  22179.49073373  .00059563  00000+0  44392-3 0  9993
2 49272  51.6335 265.1020 0007083 340.6550  19.4178 15.72150377 41403
MAYA-3                  
1 49273U 98067SS  22179.49377125  .00164170  00000+0  68425-3 0  9990
2 49273  51.6287 259.8162 0010730 343.8609  16.2051 15.84602075 41472
MAYA-4                  
1 49274U 98067ST  22179.08314667  .00152712  00000+0  67473-3 0  9999
2 49274  51.6322 262.3323 0009719 339.3412  20.7197 15.83425838 41401
CUAVA-1                 
1 49275U 98067SU  22179.45847163  .00139225  00000+0  80222-3 0  9994
2 49275  51.6353 262.4106 0008119 346.7392 103.0545 15.77707872 41381
CAPSAT                  
1 49276U 98067SV  22179.13523318  .00068273  00000+0  48221-3 0  9990
2 49276  51.6380 267.2559 0007519 344.0679  16.0082 15.73354479 40407
PR-CUNAR 2              
1 49277U 98067SW  22179.48123895  .00090986  00000+0  53898-3 0  9997
2 49277  51.6260 263.4567 0009030 343.7828  16.2882 15.77257507 40457
1998-067TD              
1 51441U 98067TD  22178.68804543  .00041288  00000+0  45044-3 0  9995
2 51441  51.6382 277.7725 0007949 287.4749  72.5376 15.62913511 23772
PATCOOL                 
1 51442U 98067TE  22179.49589524  .00034571  00000+0  37271-3 0  9995
2 51442  51.6367 273.4049 0008151 295.7892  64.2261 15.63301633 23863
DAILI                   
1 51443U 98067TF  22177.23829601  .18374243  12627-4  60969-3 0  9994
2 51443  51.6150 272.4043 0006764 342.6355  17.4440 16.44281731 23631
LIGHT-1                 
1 51509U 98067TG  22179.13270280  .00024814  00000+0  30698-3 0  9991
2 51509  51.6405 277.0011 0008641 279.8069  80.1948 15.59909968 22567
PROGRESS-MS 19          
1 51660U 22014A   22178.51914833 -.00000148  00000+0  54263-5 0  9999
2 51660  51.6433 285.4203 0004485 297.2032 167.6633 15.49715456346789
CYGNUS NG-17            
1 51712U 22015A   22179.55418832  .99999999  00000+0  36848+1 0  9993
2 51712  51.6308 280.3292 0036840 315.3625 167.5651 15.55966844 19973
SOYUZ-MS 21             
1 52086U 22028A   22178.51914833 -.00000148  00000+0  54263-5 0  9997
2 52086  51.6433 285.4203 0004485 297.2032 167.6633 15.49715456346782
IHI-SAT                 
1 52147U 98067TJ  22179.15184518  .00023732  00000+0  32354-3 0  9999
2 52147  51.6385 279.3637 0005464 322.5396  37.5215 15.57376844 14980
KITSUNE                 
1 52148U 98067TK  22175.83914563  .00027574  00000+0  40934-3 0  9993
2 52148  51.6428 296.8411 0004019 298.1380 136.4754 15.54980438 14398
CREW DRAGON 4           
1 52318U 22042A   22178.51914833 -.00000148  00000+0  54263-5 0  9991
2 52318  51.6433 285.4203 0004485 297.2032 167.6633 15.49715456346780
ISS DEB                 
1 52329U 98067TM  22173.45634771  .00573414  00000+0  30562-2 0  9994
2 52329  51.6344 305.7091 0018397 301.5233 108.1158 15.78077756  8573
TIANZHOU-4              
1 52509U 22050A   22178.13375831  .00011688  00000+0  14133-3 0  9999
2 52509  41.4703 158.4333 0003511 335.8918 125.0416 15.60554981 66326
PROGRESS-MS 20          
1 52795U 22059A   22178.51914833 -.00000148  00000+0  54263-5 0  9998
2 52795  51.6433 285.4203 0004485 297.2032 167.6633 15.49715456346789
SHENZHOU 14             
1 52797U 22060A   22178.13375831  .00011688  00000+0  14133-3 0  9999
2 52797  41.4703 158.4333 0003511 335.8918 125.0416 15.60554981 66325
